ORBCOMM FM33            
1 25983U 99065D   26024.15371125  .00002106  00000+0  69771-3 0  9996
2 25983  45.0287  27.9176 0006069  92.8408 267.3136 14.40669985367926
ORBCOMM FM36            
1 25984U 99065E   26023.70795506  .00001905  00000+0  65928-3 0  9996
2 25984  45.0377 125.3014 0002865 293.4243  66.6305 14.38840387366175
ORBCOMM FM35            
1 25985U 99065F   26023.64245674  .00002061  00000+0  72552-3 0  9991
2 25985  45.0382 132.4524 0002237  78.3837 281.7263 14.37745528366509
ORBCOMM FM34            
1 25986U 99065G   26024.02769065  .00002116  00000+0  74458-3 0  9998
2 25986  45.0375 131.1129 0002362 356.1724   3.9106 14.37678281366679
ORBCOMM FM38            
1 33060U 08031A   26024.17787830  .00004258  00000+0  55084-3 0  9992
2 33060  48.4404 341.2249 0005099 277.0161  83.0175 14.82501441947521
ORBCOMM FM41            
1 33061U 08031B   26024.18078310  .00003998  00000+0  52452-3 0  9996
2 33061  48.4445 349.7800 0004320 262.5563 110.9295 14.82044442947003
ORBCOMM FM29            
1 33062U 08031C   26024.21373292  .00004264  00000+0  55545-3 0  9991
2 33062  48.4393 357.1242 0006006 261.0609 112.5969 14.82205249946927
ORBCOMM FM39            
1 33063U 08031D   26024.06258061  .00003344  00000+0  45819-3 0  9992
2 33063  48.4402  24.6439 0006786 231.2651 128.7658 14.80614523946510
