<?xml version="1.0" encoding="UTF-8"?>
<ndm xmlns:xsi="http://www.w3.org/2001/XMLSchema-instance" xsi:noNamespaceSchemaLocation="https://sanaregistry.org/r/ndmxml_unqualified/ndmxml-2.0.0-master-2.0.xsd">
<omm id="CCSDS_OMM_VERS" version="2.0">
<header><CREATION_DATE/><ORIGINATOR/></header><body><segment><metadata><OBJECT_NAME>ORBCOMM FM33</OBJECT_NAME><OBJECT_ID>1999-065D</OBJECT_ID><CENTER_NAME>EARTH</CENTER_NAME><REF_FRAME>TEME</REF_FRAME><TIME_SYSTEM>UTC</TIME_SYSTEM><MEAN_ELEMENT_THEORY>SGP4</MEAN_ELEMENT_THEORY></metadata><data><meanElements><EPOCH>2026-01-24T03:41:20.652000</EPOCH><MEAN_MOTION>14.40669985</MEAN_MOTION><ECCENTRICITY>.0006069</ECCENTRICITY><INCLINATION>45.0287</INCLINATION><RA_OF_ASC_NODE>27.9176</RA_OF_ASC_NODE><ARG_OF_PERICENTER>92.8408</ARG_OF_PERICENTER><MEAN_ANOMALY>267.3136</MEAN_ANOMALY></meanElements><tleParameters><EPHEMERIS_TYPE>0</EPHEMERIS_TYPE><CLASSIFICATION_TYPE>U</CLASSIFICATION_TYPE><NORAD_CAT_ID>25983</NORAD_CAT_ID><ELEMENT_SET_NO>999</ELEMENT_SET_NO><REV_AT_EPOCH>36792</REV_AT_EPOCH><BSTAR>.69771E-3</BSTAR><MEAN_MOTION_DOT>.2106E-4</MEAN_MOTION_DOT><MEAN_MOTION_DDOT>0</MEAN_MOTION_DDOT></tleParameters></data></segment></body></omm>
<omm id="CCSDS_OMM_VERS" version="2.0">
<header><CREATION_DATE/><ORIGINATOR/></header><body><segment><metadata><OBJECT_NAME>ORBCOMM FM36</OBJECT_NAME><OBJECT_ID>1999-065E</OBJECT_ID><CENTER_NAME>EARTH</CENTER_NAME><REF_FRAME>TEME</REF_FRAME><TIME_SYSTEM>UTC</TIME_SYSTEM><MEAN_ELEMENT_THEORY>SGP4</MEAN_ELEMENT_THEORY></metadata><data><meanElements><EPOCH>2026-01-23T16:59:27.317184</EPOCH><MEAN_MOTION>14.38840387</MEAN_MOTION><ECCENTRICITY>.00028652</ECCENTRICITY><INCLINATION>45.0377</INCLINATION><RA_OF_ASC_NODE>125.3014</RA_OF_ASC_NODE><ARG_OF_PERICENTER>293.4243</ARG_OF_PERICENTER><MEAN_ANOMALY>66.6305</MEAN_ANOMALY></meanElements><tleParameters><EPHEMERIS_TYPE>0</EPHEMERIS_TYPE><CLASSIFICATION_TYPE>U</CLASSIFICATION_TYPE><NORAD_CAT_ID>25984</NORAD_CAT_ID><ELEMENT_SET_NO>999</ELEMENT_SET_NO><REV_AT_EPOCH>36617</REV_AT_EPOCH><BSTAR>.65928308E-3</BSTAR><MEAN_MOTION_DOT>.1905E-4</MEAN_MOTION_DOT><MEAN_MOTION_DDOT>0</MEAN_MOTION_DDOT></tleParameters></data></segment></body></omm>
<omm id="CCSDS_OMM_VERS" version="2.0">
<header><CREATION_DATE/><ORIGINATOR/></header><body><segment><metadata><OBJECT_NAME>ORBCOMM FM35</OBJECT_NAME><OBJECT_ID>1999-065F</OBJECT_ID><CENTER_NAME>EARTH</CENTER_NAME><REF_FRAME>TEME</REF_FRAME><TIME_SYSTEM>UTC</TIME_SYSTEM><MEAN_ELEMENT_THEORY>SGP4</MEAN_ELEMENT_THEORY></metadata><data><meanElements><EPOCH>2026-01-23T15:25:08.262336</EPOCH><MEAN_MOTION>14.37745528</MEAN_MOTION><ECCENTRICITY>.0002237</ECCENTRICITY><INCLINATION>45.0382</INCLINATION><RA_OF_ASC_NODE>132.4524</RA_OF_ASC_NODE><ARG_OF_PERICENTER>78.3837</ARG_OF_PERICENTER><MEAN_ANOMALY>281.7263</MEAN_ANOMALY></meanElements><tleParameters><EPHEMERIS_TYPE>0</EPHEMERIS_TYPE><CLASSIFICATION_TYPE>U</CLASSIFICATION_TYPE><NORAD_CAT_ID>25985</NORAD_CAT_ID><ELEMENT_SET_NO>999</ELEMENT_SET_NO><REV_AT_EPOCH>36650</REV_AT_EPOCH><BSTAR>.72551773E-3</BSTAR><MEAN_MOTION_DOT>.2061E-4</MEAN_MOTION_DOT><MEAN_MOTION_DDOT>0</MEAN_MOTION_DDOT></tleParameters></data></segment></body></omm>
<omm id="CCSDS_OMM_VERS" version="2.0">
<header><CREATION_DATE/><ORIGINATOR/></header><body><segment><metadata><OBJECT_NAME>ORBCOMM FM34</OBJECT_NAME><OBJECT_ID>1999-065G</OBJECT_ID><CENTER_NAME>EARTH</CENTER_NAME><REF_FRAME>TEME</REF_FRAME><TIME_SYSTEM>UTC</TIME_SYSTEM><MEAN_ELEMENT_THEORY>SGP4</MEAN_ELEMENT_THEORY></metadata><data><meanElements><EPOCH>2026-01-24T00:39:52.472160</EPOCH><MEAN_MOTION>14.37678281</MEAN_MOTION><ECCENTRICITY>.0002362</ECCENTRICITY><INCLINATION>45.0375</INCLINATION><RA_OF_ASC_NODE>131.1129</RA_OF_ASC_NODE><ARG_OF_PERICENTER>356.1724</ARG_OF_PERICENTER><MEAN_ANOMALY>3.9106</MEAN_ANOMALY></meanElements><tleParameters><EPHEMERIS_TYPE>0</EPHEMERIS_TYPE><CLASSIFICATION_TYPE>U</CLASSIFICATION_TYPE><NORAD_CAT_ID>25986</NORAD_CAT_ID><ELEMENT_SET_NO>999</ELEMENT_SET_NO><REV_AT_EPOCH>36667</REV_AT_EPOCH><BSTAR>.74458E-3</BSTAR><MEAN_MOTION_DOT>.2116E-4</MEAN_MOTION_DOT><MEAN_MOTION_DDOT>0</MEAN_MOTION_DDOT></tleParameters></data></segment></body></omm>
<omm id="CCSDS_OMM_VERS" version="2.0">
<header><CREATION_DATE/><ORIGINATOR/></header><body><segment><metadata><OBJECT_NAME>ORBCOMM FM38</OBJECT_NAME><OBJECT_ID>2008-031A</OBJECT_ID><CENTER_NAME>EARTH</CENTER_NAME><REF_FRAME>TEME</REF_FRAME><TIME_SYSTEM>UTC</TIME_SYSTEM><MEAN_ELEMENT_THEORY>SGP4</MEAN_ELEMENT_THEORY></metadata><data><meanElements><EPOCH>2026-01-24T04:16:08.685120</EPOCH><MEAN_MOTION>14.82501441</MEAN_MOTION><ECCENTRICITY>.0005099</ECCENTRICITY><INCLINATION>48.4404</INCLINATION><RA_OF_ASC_NODE>341.2249</RA_OF_ASC_NODE><ARG_OF_PERICENTER>277.0161</ARG_OF_PERICENTER><MEAN_ANOMALY>83.0175</MEAN_ANOMALY></meanElements><tleParameters><EPHEMERIS_TYPE>0</EPHEMERIS_TYPE><CLASSIFICATION_TYPE>U</CLASSIFICATION_TYPE><NORAD_CAT_ID>33060</NORAD_CAT_ID><ELEMENT_SET_NO>999</ELEMENT_SET_NO><REV_AT_EPOCH>94752</REV_AT_EPOCH><BSTAR>.55084E-3</BSTAR><MEAN_MOTION_DOT>.4258E-4</MEAN_MOTION_DOT><MEAN_MOTION_DDOT>0</MEAN_MOTION_DDOT></tleParameters></data></segment></body></omm>
<omm id="CCSDS_OMM_VERS" version="2.0">
<header><CREATION_DATE/><ORIGINATOR/></header><body><segment><metadata><OBJECT_NAME>ORBCOMM FM41</OBJECT_NAME><OBJECT_ID>2008-031B</OBJECT_ID><CENTER_NAME>EARTH</CENTER_NAME><REF_FRAME>TEME</REF_FRAME><TIME_SYSTEM>UTC</TIME_SYSTEM><MEAN_ELEMENT_THEORY>SGP4</MEAN_ELEMENT_THEORY></metadata><data><meanElements><EPOCH>2026-01-24T04:20:19.659840</EPOCH><MEAN_MOTION>14.82044442</MEAN_MOTION><ECCENTRICITY>.000432</ECCENTRICITY><INCLINATION>48.4445</INCLINATION><RA_OF_ASC_NODE>349.7800</RA_OF_ASC_NODE><ARG_OF_PERICENTER>262.5563</ARG_OF_PERICENTER><MEAN_ANOMALY>110.9295</MEAN_ANOMALY></meanElements><tleParameters><EPHEMERIS_TYPE>0</EPHEMERIS_TYPE><CLASSIFICATION_TYPE>U</CLASSIFICATION_TYPE><NORAD_CAT_ID>33061</NORAD_CAT_ID><ELEMENT_SET_NO>999</ELEMENT_SET_NO><REV_AT_EPOCH>94700</REV_AT_EPOCH><BSTAR>.52452E-3</BSTAR><MEAN_MOTION_DOT>.3998E-4</MEAN_MOTION_DOT><MEAN_MOTION_DDOT>0</MEAN_MOTION_DDOT></tleParameters></data></segment></body></omm>
<omm id="CCSDS_OMM_VERS" version="2.0">
<header><CREATION_DATE/><ORIGINATOR/></header><body><segment><metadata><OBJECT_NAME>ORBCOMM FM29</OBJECT_NAME><OBJECT_ID>2008-031C</OBJECT_ID><CENTER_NAME>EARTH</CENTER_NAME><REF_FRAME>TEME</REF_FRAME><TIME_SYSTEM>UTC</TIME_SYSTEM><MEAN_ELEMENT_THEORY>SGP4</MEAN_ELEMENT_THEORY></metadata><data><meanElements><EPOCH>2026-01-24T05:07:46.524288</EPOCH><MEAN_MOTION>14.82205249</MEAN_MOTION><ECCENTRICITY>.0006006</ECCENTRICITY><INCLINATION>48.4393</INCLINATION><RA_OF_ASC_NODE>357.1242</RA_OF_ASC_NODE><ARG_OF_PERICENTER>261.0609</ARG_OF_PERICENTER><MEAN_ANOMALY>112.5969</MEAN_ANOMALY></meanElements><tleParameters><EPHEMERIS_TYPE>0</EPHEMERIS_TYPE><CLASSIFICATION_TYPE>U</CLASSIFICATION_TYPE><NORAD_CAT_ID>33062</NORAD_CAT_ID><ELEMENT_SET_NO>999</ELEMENT_SET_NO><REV_AT_EPOCH>94692</REV_AT_EPOCH><BSTAR>.55545E-3</BSTAR><MEAN_MOTION_DOT>.4264E-4</MEAN_MOTION_DOT><MEAN_MOTION_DDOT>0</MEAN_MOTION_DDOT></tleParameters></data></segment></body></omm>
<omm id="CCSDS_OMM_VERS" version="2.0">
<header><CREATION_DATE/><ORIGINATOR/></header><body><segment><metadata><OBJECT_NAME>ORBCOMM FM39</OBJECT_NAME><OBJECT_ID>2008-031D</OBJECT_ID><CENTER_NAME>EARTH</CENTER_NAME><REF_FRAME>TEME</REF_FRAME><TIME_SYSTEM>UTC</TIME_SYSTEM><MEAN_ELEMENT_THEORY>SGP4</MEAN_ELEMENT_THEORY></metadata><data><meanElements><EPOCH>2026-01-24T01:30:06.964704</EPOCH><MEAN_MOTION>14.80614523</MEAN_MOTION><ECCENTRICITY>.0006786</ECCENTRICITY><INCLINATION>48.4402</INCLINATION><RA_OF_ASC_NODE>24.6439</RA_OF_ASC_NODE><ARG_OF_PERICENTER>231.2651</ARG_OF_PERICENTER><MEAN_ANOMALY>128.7658</MEAN_ANOMALY></meanElements><tleParameters><EPHEMERIS_TYPE>0</EPHEMERIS_TYPE><CLASSIFICATION_TYPE>U</CLASSIFICATION_TYPE><NORAD_CAT_ID>33063</NORAD_CAT_ID><ELEMENT_SET_NO>999</ELEMENT_SET_NO><REV_AT_EPOCH>94651</REV_AT_EPOCH><BSTAR>.45819E-3</BSTAR><MEAN_MOTION_DOT>.3344E-4</MEAN_MOTION_DOT><MEAN_MOTION_DDOT>0</MEAN_MOTION_DDOT></tleParameters></data></segment></body></omm>

</ndm>
